COMMENT,ORIGINATOR,NORAD_CAT_ID,OBJECT_NAME,OBJECT_TYPE,CLASSIFICATION_TYPE,INTLDES,EPOCH,EPOCH_MICROSECONDS,MEAN_MOTION,ECCENTRICITY,INCLINATION,RA_OF_ASC_NODE,ARG_OF_PERICENTER,MEAN_ANOMALY,EPHEMERIS_TYPE,ELEMENT_SET_NO,REV_AT_EPOCH,BSTAR,MEAN_MOTION_DOT,MEAN_MOTION_DDOT,FILE,TLE_LINE0,TLE_LINE1,TLE_LINE2,OBJECT_ID,OBJECT_NUMBER,SEMIMAJOR_AXIS,PERIOD,APOGEE,PERIGEE,DECAYED
"GENERATED VIA SPACETRACK.ORG API","18 SPCS","48899","SPACEBEE-110","PAYLOAD","U","21059W","2022-12-17 08:16:21","567648","15.20655741","0.0008645","97.5773","121.2699","179.7224","180.4017","0","999","8169","0.00074803","0.0001639","0","3706198","0 SPACEBEE-110","1 48899U 21059W   22351.34469407  .00016390  00000-0  74803-3 0  9999","2 48899  97.5773 121.2699 0008645 179.7224 180.4017 15.20655741 81694","2021-059W","48899","6881.998","94.696","509.813","497.914","0"
"GENERATED VIA SPACETRACK.ORG API","18 SPCS","48899","SPACEBEE-110","PAYLOAD","U","21059W","2022-12-17 14:35:23","42976","15.20663981","0.0008647","97.5772","121.5346","179.0126","181.1128","0","999","8173","0.00074568","0.00016342","0","3707070","0 SPACEBEE-110","1 48899U 21059W   22351.60790559  .00016342  00000-0  74568-3 0  9998","2 48899  97.5772 121.5346 0008647 179.0126 181.1128 15.20663981 81732","2021-059W","48899","6881.974","94.695","509.789","497.888","0"
"GENERATED VIA SPACETRACK.ORG API","18 SPCS","48899","SPACEBEE-110","PAYLOAD","U","21059W","2022-12-18 07:57:41","493600","15.20686097","0.0008689","97.5772","122.2625","176.4937","183.6361","0","999","8184","0.00069607","0.00015258","0","3708942","0 SPACEBEE-110","1 48899U 21059W   22352.33173025  .00015258  00000-0  69607-3 0  9995","2 48899  97.5772 122.2625 0008689 176.4937 183.6361 15.20686097 81848","2021-059W","48899","6881.907","94.694","509.752","497.792","0"
"GENERATED VIA SPACETRACK.ORG API","18 SPCS","48899","SPACEBEE-110","PAYLOAD","U","21059W","2022-12-19 04:29:29","355648","15.2071593","0.0008687","97.5772","123.1226","173.7235","186.411","0","999","8197","0.00082941","0.00018217","0","3710568","0 SPACEBEE-110","1 48899U 21059W   22353.18714532  .00018217  00000-0  82941-3 0  9997","2 48899  97.5772 123.1226 0008687 173.7235 186.4110 15.20715930 81970","2021-059W","48899","6881.817","94.692","509.660","497.704","0"
"GENERATED VIA SPACETRACK.ORG API","18 SPCS","48899","SPACEBEE-110","PAYLOAD","U","21059W","2022-12-19 07:38:59","656128","15.20721012","0.0008683","97.5772","123.255","173.3007","186.8345","0","999","8199","0.00083545","0.00018353","0","3711365","0 SPACEBEE-110","1 48899U 21059W   22353.31874602  .00018353  00000-0  83545-3 0  9999","2 48899  97.5772 123.2550 0008683 173.3007 186.8345 15.20721012 81994","2021-059W","48899","6881.802","94.692","509.642","497.691","0"
"GENERATED VIA SPACETRACK.ORG API","18 SPCS","48899","SPACEBEE-110","PAYLOAD","U","21059W","2022-12-20 07:20:15","574848","15.20761209","0.000872","97.5774","124.2476","169.7365","190.4049","0","999","8214","0.00086491","0.00019027","0","3712546","0 SPACEBEE-110","1 48899U 21059W   22354.30573582  .00019027  00000-0  86491-3 0  9994","2 48899  97.5774 124.2476 0008720 169.7365 190.4049 15.20761209 82144","2021-059W","48899","6881.680","94.689","509.546","497.544","0"
"GENERATED VIA SPACETRACK.ORG API","18 SPCS","48899","SPACEBEE-110","PAYLOAD","U","21059W","2022-12-20 07:20:15","574848","15.20761209","0.000872","97.5774","124.2476","169.7365","190.4049","0","999","8214","0.00086491","0.00019027","0","3713130","0 SPACEBEE-110","1 48899U 21059W   22354.30573582  .00019027  00000-0  86491-3 0  9994","2 48899  97.5774 124.2476 0008720 169.7365 190.4049 15.20761209 82144","2021-059W","48899","6881.680","94.689","509.546","497.544","0"
"GENERATED VIA SPACETRACK.ORG API","18 SPCS","48899","SPACEBEE-110","PAYLOAD","U","21059W","2022-12-21 08:36:14","228064","15.20799662","0.0008755","97.5776","125.3065","165.9143","194.2337","0","999","8230","0.00078292","0.00017232","0","3716128","0 SPACEBEE-110","1 48899U 21059W   22355.35849801  .00017232  00000-0  78292-3 0  9996","2 48899  97.5776 125.3065 0008755 165.9143 194.2337 15.20799662 82306","2021-059W","48899","6881.564","94.687","509.454","497.404","0"
"GENERATED VIA SPACETRACK.ORG API","18 SPCS","48899","SPACEBEE-110","PAYLOAD","U","21059W","2022-12-21 08:36:14","228064","15.20799662","0.0008755","97.5776","125.3065","165.9143","194.2337","0","999","8230","0.00078292","0.00017232","0","3716551","0 SPACEBEE-110","1 48899U 21059W   22355.35849801  .00017232  00000-0  78292-3 0  9996","2 48899  97.5776 125.3065 0008755 165.9143 194.2337 15.20799662 82306","2021-059W","48899","6881.564","94.687","509.454","497.404","0"
"GENERATED VIA SPACETRACK.ORG API","18 SPCS","48899","SPACEBEE-110","PAYLOAD","U","21059W","2022-12-22 08:17:26","66976","15.20829103","0.0008841","97.5778","126.2993","162.5552","197.5988","0","999","8245","0.00063946","0.00014068","0","3719197","0 SPACEBEE-110","1 48899U 21059W   22356.34544059  .00014068  00000-0  63946-3 0  9997","2 48899  97.5778 126.2993 0008841 162.5552 197.5988 15.20829103 82459","2021-059W","48899","6881.475","94.685","509.424","497.257","0"
"GENERATED VIA SPACETRACK.ORG API","18 SPCS","48899","SPACEBEE-110","PAYLOAD","U","21059W","2022-12-22 14:36:24","951168","15.20836412","0.0008846","97.5779","126.564","161.7644","198.391","0","999","8249","0.00063923","0.00014066","0","3718997","0 SPACEBEE-110","1 48899U 21059W   22356.60862212  .00014066  00000-0  63923-3 0  9993","2 48899  97.5779 126.5640 0008846 161.7644 198.3910 15.20836412 82499","2021-059W","48899","6881.453","94.685","509.406","497.231","0"
"GENERATED VIA SPACETRACK.ORG API","18 SPCS","48899","SPACEBEE-110","PAYLOAD","U","21059W","2022-12-22 20:55:23","710944","15.20846775","0.0008848","97.578","126.8287","160.9533","199.2035","0","999","8253","0.00072724","0.00016021","0","3719655","0 SPACEBEE-110","1 48899U 21059W   22356.87180221  .00016021  00000-0  72724-3 0  9997","2 48899  97.5780 126.8287 0008848 160.9533 199.2035 15.20846775 82537","2021-059W","48899","6881.422","94.684","509.376","497.198","0"
"GENERATED VIA SPACETRACK.ORG API","18 SPCS","48899","SPACEBEE-110","PAYLOAD","U","21059W","2022-12-23 14:17:34","699200","15.20867032","0.0008878","97.5782","127.5567","158.6525","201.5082","0","999","8264","0.00069106","0.00015228","0","3720302","0 SPACEBEE-110","1 48899U 21059W   22357.59554050  .00015228  00000-0  69106-3 0  9990","2 48899  97.5782 127.5567 0008878 158.6525 201.5082 15.20867032 82646","2021-059W","48899","6881.361","94.683","509.335","497.117","0"
"GENERATED VIA SPACETRACK.ORG API","18 SPCS","48899","SPACEBEE-110","PAYLOAD","U","21059W","2022-12-24 07:39:44","743968","15.20891702","0.0008915","97.5784","128.2846","156.2575","203.9074","0","999","8275","0.00074785","0.000165","0","3720898","0 SPACEBEE-110","1 48899U 21059W   22358.31926787  .00016500  00000-0  74785-3 0  9994","2 48899  97.5784 128.2846 0008915 156.2575 203.9074 15.20891702 82757","2021-059W","48899","6881.287","94.681","509.286","497.017","0"
"GENERATED VIA SPACETRACK.ORG API","18 SPCS","48899","SPACEBEE-110","PAYLOAD","U","21059W","2022-12-24 07:39:44","743968","15.20891702","0.0008915","97.5784","128.2846","156.2575","203.9074","0","999","8275","0.00074785","0.000165","0","3721189","0 SPACEBEE-110","1 48899U 21059W   22358.31926787  .00016500  00000-0  74785-3 0  9994","2 48899  97.5784 128.2846 0008915 156.2575 203.9074 15.20891702 82757","2021-059W","48899","6881.287","94.681","509.286","497.017","0"
"GENERATED VIA SPACETRACK.ORG API","18 SPCS","48899","SPACEBEE-110","PAYLOAD","U","21059W","2022-12-25 07:20:51","452448","15.20920614","0.0008962","97.5788","129.2775","152.6807","207.4901","0","999","8290","0.00063551","0.00014018","0","3722051","0 SPACEBEE-110","1 48899U 21059W   22359.30615107  .00014018  00000-0  63551-3 0  9996","2 48899  97.5788 129.2775 0008962 152.6807 207.4901 15.20920614 82903","2021-059W","48899","6881.199","94.679","509.231","496.897","0"
"GENERATED VIA SPACETRACK.ORG API","18 SPCS","48899","SPACEBEE-110","PAYLOAD","U","21059W","2022-12-25 15:14:33","352800","15.20927716","0.000898","97.5788","129.6084","151.5406","208.6321","0","999","8295","0.00056479","0.0001245","0","3722262","0 SPACEBEE-110","1 48899U 21059W   22359.63510825  .00012450  00000-0  56479-3 0  9992","2 48899  97.5788 129.6084 0008980 151.5406 208.6321 15.20927716 82957","2021-059W","48899","6881.178","94.679","509.222","496.864","0"
"GENERATED VIA SPACETRACK.ORG API","18 SPCS","48899","SPACEBEE-110","PAYLOAD","U","21059W","2022-12-25 15:14:33","352800","15.20927716","0.000898","97.5788","129.6084","151.5406","208.6321","0","999","8295","0.00056479","0.0001245","0","3722315","0 SPACEBEE-110","1 48899U 21059W   22359.63510825  .00012450  00000-0  56479-3 0  9992","2 48899  97.5788 129.6084 0008980 151.5406 208.6321 15.20927716 82957","2021-059W","48899","6881.178","94.679","509.222","496.864","0"
"GENERATED VIA SPACETRACK.ORG API","18 SPCS","48899","SPACEBEE-110","PAYLOAD","U","21059W","2022-12-26 08:36:40","910112","15.2094938","0.0009035","97.5788","130.3364","148.9723","211.2048","0","999","8306","0.00059836","0.00013205","0","3722937","0 SPACEBEE-110","1 48899U 21059W   22360.35880683  .00013205  00000-0  59836-3 0  9994","2 48899  97.5788 130.3364 0009035 148.9723 211.2048 15.20949380 83061","2021-059W","48899","6881.113","94.678","509.195","496.761","0"
"GENERATED VIA SPACETRACK.ORG API","18 SPCS","48899","SPACEBEE-110","PAYLOAD","U","21059W","2022-12-27 03:33:31","760928","15.20974661","0.0009044","97.5786","131.1306","146.4878","213.6931","0","999","8318","0.00068744","0.00015196","0","3723521","0 SPACEBEE-110","1 48899U 21059W   22361.14828427  .00015196  00000-0  68744-3 0  9999","2 48899  97.5786 131.1306 0009044 146.4878 213.6931 15.20974661 83188","2021-059W","48899","6881.036","94.676","509.125","496.678","0"
